GLOBALSTAR M057         
1 25943U 99058A   24277.54130659  .00000003  00000+0  87078-3 0  9994
2 25943  52.0019 356.5494 0002411 197.4572 162.6195 12.24800068135483
GLOBALSTAR M059         
1 25944U 99058B   24277.78645792 -.00000040  00000+0  57190-3 0  9994
2 25944  52.0009 180.8140 0000804  78.0097 347.9627 11.99966002132015
GLOBALSTAR M056         
1 25945U 99058C   24277.24913154 -.00000112  00000+0 -28780-3 0  9990
2 25945  51.9955 190.8223 0001549  40.1049  96.7478 12.04777646131654
GLOBALSTAR M031         
1 25946U 99058D   24277.80149796 -.00000045  00000+0  46065-3 0  9996
2 25946  51.9945  96.9908 0001953  45.7968  54.5564 12.16019585133597
GLOBALSTAR M039         
1 25961U 99062A   24277.85672100 -.00000018  00000+0  47769-3 0  9995
2 25961  51.9862 329.4389 0003041 137.0047 223.1057 12.62304768147870
GLOBALSTAR M034         
1 25962U 99062B   24277.86571796 -.00000079  00000+0  28150-4 0  9997
2 25962  51.9886 317.6725 0013838 277.3658 253.7862 11.79433196108135
GLOBALSTAR M029         
1 25963U 99062C   24277.61504878 -.00000075  00000+0  13502-3 0  9998
2 25963  51.9799  69.5305 0002159 352.4430  88.3011 11.99883777138321
GLOBALSTAR M061         
1 25964U 99062D   24277.86324262 -.00000084  00000+0 -54908-4 0  9990
2 25964  51.9776 138.3122 0005463 195.8633 252.2888 11.76766247 91299
